{"type":"FeatureCollection","features":[{"type":"Feature","properties":{"name":"han","source":"rasterized: Natural Earth coast (world-atlas 50m) ∩ hand-drawn historical frontier, marching squares + Douglas-Peucker ε=0.3°"},"geometry":{"type":"MultiPolygon","coordinates":[[[[110,21.125],[109.75,21.625],[109.5,21.625],[109.25,21.375],[108.5,21.875],[108.25,21.625],[107,21.875],[106.5,22.375],[106.25,22.375],[105.75,22.875],[105.5,22.875],[105,23.375],[104.75,23.375],[104.25,23.875],[103.875,24],[103.625,24.75],[102.875,25.5],[102.875,25.75],[101.875,27],[101.875,27.5],[101.625,27.75],[101.625,28.25],[101.375,28.5],[101.375,29],[101.125,29.25],[101.125,29.75],[100.875,30],[100.875,30.25],[99.375,32.25],[99.375,32.5],[97.125,34.75],[97.125,35],[96.75,35.125],[95.875,36],[95.875,36.5],[95.375,37],[95.375,37.25],[94.875,38],[94.875,38.5],[94,39.875],[86.75,39.875],[86.5,39.625],[85,39.625],[84.75,39.375],[83.75,39.375],[83.5,39.125],[82,39.125],[81.75,38.875],[75,38.875],[74.875,39],[75,39.125],[76.25,39.125],[76.5,39.375],[77.25,39.375],[77.5,39.625],[78.75,39.625],[79,39.875],[79.75,39.875],[80,40.125],[80.75,40.125],[81.5,40.625],[82.25,40.625],[83,41.125],[83.5,41.125],[83.75,41.375],[84.5,41.375],[84.75,41.625],[85,41.625],[85.25,41.875],[85.75,41.875],[86,42.125],[87.75,42.125],[88,42.375],[89.75,42.375],[90,42.625],[91.75,42.625],[92,42.875],[95.5,42.875],[95.75,42.625],[96.75,42.625],[97,42.375],[98.5,42.375],[98.75,42.125],[99.75,42.125],[100,41.875],[102,41.875],[102.25,41.625],[103.75,41.625],[104,41.375],[106,41.375],[106.25,41.125],[107.75,41.125],[108,40.875],[108.75,40.875],[109,40.625],[109.75,40.625],[110,40.375],[110.75,40.375],[111,40.125],[113,40.125],[113.25,40.375],[113.75,40.375],[114,40.625],[115,40.625],[115.25,40.875],[120,40.875],[120.375,40.25],[119.5,39.875],[119.125,39.5],[119,39.125],[117.75,39.125],[117.625,38.5],[118,38.125],[118.75,38.125],[119.125,37.75],[118.875,37.5],[119.25,37.125],[119.75,37.125],[120.75,37.875],[121,37.625],[121.5,37.625],[121.75,37.375],[122.5,37.375],[122.625,37.25],[122.5,36.875],[121.5,36.875],[121.25,36.625],[121,36.625],[119.125,35],[119.25,34.625],[119.75,34.625],[120.375,34.25],[120.375,33.75],[120.625,33.5],[120.875,32.75],[121.625,32],[121.375,31.75],[121.375,31.5],[121.875,31],[121,30.625],[120.625,30.25],[120.875,30],[120.875,29.75],[120.125,29],[120.125,28.75],[118.875,27.25],[118.875,27],[117.625,25.75],[117.625,25.5],[117.25,25.375],[116.875,25],[116.875,24.75],[116.5,24.625],[116.375,24.25],[116,24.125],[115.625,23.75],[115.625,23.5],[115.125,23.25],[115,22.875],[114.75,22.875],[114.25,22.375],[114,22.625],[113.75,22.625],[113.5,23.125],[113.375,23],[113.375,22.75],[113.625,22.5],[113.5,22.125],[113,22.125],[112.75,21.875],[112,21.875],[111.25,21.375],[110.75,21.375],[110.5,21.125],[110.25,21.125],[110,21.125]]],[[[114,22.125],[113.875,22.25],[114,22.375],[114.125,22.25],[114,22.125]]],[[[121.25,30.125],[121.125,30.25],[121.25,30.375],[121.375,30.25],[121.25,30.125]]],[[[121.75,31.375],[121.625,31.5],[121.75,31.875],[121.875,31.5],[121.75,31.375]]],[[[121,31.625],[120.625,32],[120.75,32.125],[121.125,31.75],[121,31.625]]],[[[126.25,36.625],[126.125,36.75],[126.5,37.125],[126.875,36.75],[126.5,36.625],[126.25,36.625]]],[[[126.5,37.625],[126.375,37.75],[126.5,37.875],[126.625,37.75],[126.5,37.625]]],[[[125.25,37.875],[124.875,38.25],[124.875,38.5],[125.375,38.75],[125.125,39],[125.25,39.125],[125.75,39.125],[126.125,38.75],[126.375,38],[126.25,37.875],[125.5,37.875],[125.25,37.875]]],[[[121.5,38.875],[121.375,39],[121.5,39.125],[121.625,39],[121.5,38.875]]],[[[121.75,39.125],[121.625,39.25],[121.75,39.375],[122,39.375],[122.125,39.25],[122,39.125],[121.75,39.125]]],[[[122.5,39.375],[122.375,39.5],[122.5,39.625],[122.625,39.5],[122.5,39.375]]]]}}]}