{"type":"FeatureCollection","features":[{"type":"Feature","properties":{"name":"ming","source":"rasterized: Natural Earth coast (world-atlas 50m) ∩ hand-drawn historical frontier, marching squares + Douglas-Peucker ε=0.3°"},"geometry":{"type":"MultiPolygon","coordinates":[[[[106.25,20.375],[105.75,20.875],[105.5,20.875],[105,21.375],[104.75,21.375],[104.25,21.875],[104,21.875],[103.5,22.375],[103.25,22.375],[102.5,23.125],[102.25,23.125],[101.25,23.875],[101,23.875],[94.875,30],[94.875,30.75],[94.375,31.5],[94.375,32],[94.125,32.25],[94.125,32.75],[93.875,33],[94.125,33.25],[94.375,34.5],[94.875,35.25],[94.875,36],[97.125,38.25],[97.625,39.5],[98,39.875],[103.75,39.875],[104,40.125],[105.5,40.125],[105.75,40.375],[107,40.375],[107.25,40.625],[108.5,40.625],[108.75,40.875],[109.75,40.875],[110,41.125],[111,41.125],[111.25,41.375],[112.25,41.375],[112.5,41.625],[113.5,41.625],[113.75,41.875],[118.75,41.875],[119.5,41.375],[120.25,41.375],[120.5,41.125],[120.75,41.125],[120.875,40.75],[120.25,40.125],[119.5,39.875],[119.125,39.5],[119,39.125],[117.75,39.125],[117.625,39],[117.625,38.5],[118,38.125],[118.75,38.125],[119.125,37.75],[118.875,37.5],[119.25,37.125],[119.75,37.125],[120.25,37.625],[120.5,37.625],[120.75,37.875],[120.875,37.75],[120.875,36.5],[119.125,35],[119.25,34.625],[119.75,34.625],[120.375,34.25],[120.375,33],[120.125,32.75],[120.125,32.25],[119.875,32],[119.875,31.75],[118.875,30],[118.875,29.5],[118.375,29],[118.375,28.5],[117.625,27.75],[117.625,27.5],[117.25,27.375],[116.875,27],[116.875,26.75],[116.5,26.625],[116.375,26.25],[116,26.125],[115.625,25.75],[115.5,25.375],[115.25,25.375],[113.25,23.375],[113,23.375],[112.25,22.625],[112,22.625],[110.25,21.125],[110,21.125],[109.75,21.625],[109.5,21.625],[109.25,21.375],[108.5,21.875],[108.25,21.625],[108,21.625],[107,20.625],[106.75,20.875],[106.5,20.375],[106.25,20.375]]],[[[109.75,20.875],[109.625,21],[109.75,21.125],[109.875,21],[109.75,20.875]]]]}}]}