{
  "type": "FeatureCollection",
  "features": [
    {
      "type": "Feature",
      "properties": {
        "id": "qing",
        "name": "清朝（极盛）",
        "color": "#5a5a5a",
        "startYear": 1644,
        "endYear": 1912
      },
      "geometry": {
        "type": "Polygon",
        "coordinates": [[
          [135, 50], [135, 45], [130, 42], [128, 35], [122, 30],
          [115, 22], [108, 21], [100, 22], [92, 28], [85, 32],
          [78, 35], [73, 35], [75, 40], [78, 45], [82, 48],
          [90, 52], [100, 54], [115, 54], [125, 53], [135, 50]
        ]]
      }
    }
  ]
}