{"type":"FeatureCollection","features":[{"type":"Feature","properties":{"name":"song","source":"rasterized: Natural Earth coast (world-atlas 50m) ∩ hand-drawn historical frontier, marching squares + Douglas-Peucker ε=0.3°"},"geometry":{"type":"MultiPolygon","coordinates":[[[[106,19.875],[105.75,20.125],[105.5,20.125],[105.25,20.375],[105,20.375],[104.75,20.625],[104.5,20.625],[104.25,20.875],[104,20.875],[103.75,21.125],[102,21.875],[101.875,22.25],[101.375,22.75],[101.375,23],[100.875,23.5],[100.875,23.75],[100.375,24.25],[100.375,24.5],[94.875,30],[94.875,30.75],[94.375,31.5],[94.375,32],[94.125,32.25],[94.125,32.75],[93.875,33],[94.25,33.375],[94.5,33.375],[94.875,33.75],[94.875,34],[95.5,34.625],[95.875,34.75],[96,35.125],[97,35.125],[97.25,35.375],[98,35.375],[98.25,35.625],[99,35.625],[99.25,35.875],[103.75,35.875],[104,36.125],[104.5,36.125],[105,36.625],[105.25,36.625],[107.5,37.875],[108.25,37.875],[110,36.875],[110.5,36.875],[111,36.375],[111.25,36.375],[112,35.875],[115.5,35.875],[115.75,35.625],[116.25,35.625],[116.5,35.375],[117.75,35.125],[118,34.875],[119.75,34.125],[120.875,33],[120.875,32.5],[120.625,32.25],[120.625,31.75],[120.375,31.5],[120.125,30.25],[118.875,28],[118.875,27.5],[118.375,27],[118.375,26.75],[117.625,25.75],[117.625,25.5],[117.25,25.375],[116.875,25],[116.875,24.75],[116.5,24.625],[116.375,24.25],[116,24.125],[115.625,23.75],[115.625,23.5],[115.125,23.25],[115,22.875],[114.75,22.875],[114.25,22.375],[114,22.625],[113.75,22.625],[113.5,23.125],[113.375,23],[113.375,22.75],[113.625,22.5],[113.5,22.125],[113,22.125],[112.75,21.875],[112,21.875],[111.25,21.375],[110.75,21.375],[110.5,20.875],[110.25,21.125],[110.125,21],[110.625,20.5],[110.5,20.375],[109.875,20.5],[109.875,20.75],[109.625,21],[109.875,21.25],[109.75,21.625],[109.5,21.625],[109.25,21.375],[108.5,21.875],[108.25,21.625],[108,21.625],[107,20.625],[106.75,20.875],[106.625,20.5],[106.125,20],[106,19.875]]],[[[114,22.125],[113.875,22.25],[114,22.375],[114.125,22.25],[114,22.125]]]]}}]}