{
  "type": "FeatureCollection",
  "features": [
    {
      "type": "Feature",
      "properties": {
        "id": "tang",
        "name": "唐朝",
        "color": "#c89a5b",
        "startYear": 618,
        "endYear": 907
      },
      "geometry": {
        "type": "Polygon",
        "coordinates": [[
          [125, 50], [125, 40], [120, 35], [115, 28], [108, 22],
          [102, 22], [95, 28], [90, 35], [82, 38], [75, 40],
          [70, 42], [65, 45], [70, 50], [80, 53], [90, 53],
          [100, 53], [110, 53], [120, 52], [125, 50]
        ]]
      }
    }
  ]
}