{"type":"FeatureCollection","features":[{"type":"Feature","properties":{"name":"arab-caliphate","source":"rasterized: Natural Earth coast (world-atlas 50m) ∩ hand-drawn historical frontier, marching squares + Douglas-Peucker ε=0.3°"},"geometry":{"type":"MultiPolygon","coordinates":[[[[25,21.875],[24.5,22.375],[23.75,22.625],[23.25,23.125],[22.5,23.375],[22,23.875],[21.25,24.125],[20.75,24.625],[20,24.875],[19.5,25.375],[18.75,25.625],[17.5,26.625],[16.25,27.125],[15.75,27.625],[15.5,27.625],[14.75,28.125],[13.75,28.125],[13.5,28.375],[12.5,28.375],[12.25,28.625],[11.5,28.625],[11.25,28.875],[10,28.875],[9.75,29.125],[8.75,29.125],[8.5,29.375],[7.5,29.375],[7.25,29.625],[6.25,29.625],[6,29.875],[5,29.875],[4.75,30.125],[1.5,30.125],[1.25,30.375],[-2,30.375],[-2.25,30.625],[-4.5,30.625],[-4.75,30.875],[-7,30.875],[-7.75,31.375],[-8.25,31.375],[-8.5,31.625],[-9.25,31.875],[-9.375,32.25],[-9.125,32.5],[-9.125,32.75],[-8.5,33.375],[-8,33.375],[-7.75,33.625],[-7,33.875],[-6.625,34.25],[-6.375,35],[-6,35.375],[-4.75,35.375],[-4.5,35.125],[-4,35.125],[-3.75,35.375],[-3.5,35.125],[-3.25,35.125],[-3,35.375],[-2.75,35.125],[-1.75,35.125],[-1.5,35.375],[0.25,35.375],[0.5,35.125],[3,35.125],[3.25,34.875],[10.75,34.875],[10.875,34.75],[10.5,34.625],[10.125,34.25],[10.125,34],[10.5,33.625],[10.75,33.875],[11.125,33.5],[11.25,33.125],[11.75,33.125],[12,32.875],[14,32.875],[14.75,32.375],[15.25,32.375],[15.375,31.75],[15.75,31.375],[16.25,31.375],[16.5,31.125],[17.5,31.125],[18.75,30.375],[19.5,30.375],[20.125,31],[20.125,31.25],[19.875,31.5],[19.875,32],[20.5,32.625],[21,32.625],[21.25,32.875],[21.5,32.625],[22.25,32.625],[22.5,32.375],[23,32.375],[23.25,32.125],[24.25,32.125],[24.5,31.875],[24.75,32.125],[25.25,31.625],[26.5,31.625],[26.75,31.375],[27.25,31.375],[27.5,31.125],[28.5,31.125],[28.75,30.875],[29.5,30.875],[30,31.375],[30.5,31.375],[30.75,31.625],[31,31.375],[31.25,31.625],[32,31.125],[32.25,31.375],[32.5,31.125],[34,31.125],[34.625,31.75],[34.625,32],[34.875,32.25],[34.875,32.75],[35.875,34.5],[35.875,35.75],[36,35.875],[40,35.875],[41.875,34.25],[41.75,33.875],[41,33.875],[40.75,33.625],[40.25,33.625],[40,33.375],[39,33.375],[38.75,33.125],[38,33.125],[36.875,32],[36.875,31.75],[36.5,31.625],[34.625,29.75],[34.625,29.5],[34.25,29.375],[33.875,29],[33.875,28.75],[33.5,28.375],[32.625,29.5],[32.625,29.75],[32.5,29.875],[32.375,29.75],[32.375,29.5],[32.625,29.25],[32.875,28.5],[33.375,28],[33.375,27.75],[32.375,26],[32.375,25.5],[31.875,25],[31.875,24.75],[31.375,24.25],[31.375,24],[30.875,23.5],[30.875,23.25],[30.375,22.75],[30.375,22.5],[29.75,21.875],[25.25,21.875],[25,21.875]]],[[[68,27.875],[67.75,28.125],[67,28.375],[66.5,28.875],[66,28.875],[65.75,29.125],[65.5,29.125],[65.25,29.375],[65,29.375],[64.75,29.625],[64.5,29.625],[64.25,29.875],[64,29.875],[63.75,30.125],[63.5,30.125],[63.25,30.375],[63,30.375],[62.75,30.625],[62.5,30.625],[62.25,30.875],[60.5,31.625],[60.25,31.875],[55.75,31.875],[55.5,31.625],[55,31.625],[54.5,31.125],[54,31.125],[53.5,30.625],[53.25,30.625],[52.5,30.125],[52,30.125],[51.75,29.875],[50.25,29.875],[50,30.125],[49.25,30.125],[49,30.375],[48.5,29.875],[48.25,29.875],[47.25,30.625],[47,30.625],[46.25,31.375],[46,31.375],[45,32.375],[44.75,32.375],[43.5,33.375],[43,33.375],[42.625,33.75],[43,33.875],[43.25,33.625],[43.75,33.625],[44,33.375],[45,33.375],[45.25,33.125],[45.75,33.125],[46,32.875],[47,32.875],[47.25,32.625],[47.75,32.625],[48,32.375],[49,32.375],[49.25,32.125],[49.75,32.125],[50,31.875],[53.75,31.875],[54.375,32.5],[54.375,32.75],[54.875,33.25],[54.875,33.5],[55.375,34],[55.375,34.25],[55.875,34.75],[55.875,35],[56.375,35.5],[56.375,35.75],[56.875,36.25],[56.875,36.5],[57.375,37],[57.375,37.25],[58,37.875],[62.25,37.875],[64,36.875],[64.5,36.875],[65,36.375],[65.25,36.375],[65.5,36.125],[65.75,36.125],[68.5,34.625],[69,34.625],[69.5,34.125],[69.75,34.125],[70,33.875],[70.25,33.875],[73,32.375],[73.5,32.375],[75.25,30.625],[75.5,30.625],[75.875,30],[75.5,29.625],[75.25,29.625],[74.5,29.125],[74,29.125],[71.75,27.875],[68.25,27.875],[68,27.875]]],[[[33,34.625],[32.875,34.75],[33,35.125],[34,35.125],[34.125,35],[33.5,34.875],[33.25,34.625],[33,34.625]]],[[[-6,36.125],[-6.75,37.125],[-8.75,37.125],[-8.875,37.25],[-8.875,38.25],[-9.375,38.75],[-9.375,39.25],[-9.125,39.5],[-9.125,39.75],[-8.875,40],[-8.875,40.5],[-8.625,40.75],[-8.625,41.25],[-8.875,41.5],[-8.875,42],[-8.625,42.25],[-8.875,42.5],[-9.125,43.25],[-8.5,43.375],[-8.25,43.625],[-5.25,43.625],[-5,43.375],[-0.75,43.375],[0,42.875],[0.5,42.875],[0.875,42.5],[0.875,41.5],[0.625,41.25],[0.625,40.5],[-0.375,39.5],[-0.375,39.25],[0.125,38.75],[-0.25,38.375],[-0.5,38.375],[-0.625,38],[-1,37.625],[-1.75,37.375],[-2,36.875],[-2.5,36.875],[-2.75,36.625],[-3,36.625],[-3.25,36.875],[-3.5,36.625],[-3.75,36.875],[-4,36.625],[-4.75,36.625],[-5,36.375],[-5.75,36.125],[-6,36.125]]]]}}]}