{
  "type": "FeatureCollection",
  "features": [
    {
      "type": "Feature",
      "properties": { "name": "不列颠群岛（本土）", "color": "#b04838" },
      "geometry": {
        "type": "Polygon",
        "coordinates": [[[-8,50],[-2,51],[0,53],[-3,58],[-8,57],[-10,53],[-8,50]]]
      }
    },
    {
      "type": "Feature",
      "properties": { "name": "英属印度", "color": "#b04838" },
      "geometry": {
        "type": "Polygon",
        "coordinates": [[[68,8],[80,8],[88,22],[90,28],[78,35],[68,28],[68,8]]]
      }
    },
    {
      "type": "Feature",
      "properties": { "name": "英属加拿大", "color": "#b04838" },
      "geometry": {
        "type": "Polygon",
        "coordinates": [[[-140,60],[-95,49],[-55,50],[-60,70],[-130,70],[-140,60]]]
      }
    },
    {
      "type": "Feature",
      "properties": { "name": "澳大利亚（殖民地）", "color": "#b04838" },
      "geometry": {
        "type": "Polygon",
        "coordinates": [[[113,-22],[129,-12],[142,-11],[153,-28],[146,-39],[115,-34],[113,-22]]]
      }
    },
    {
      "type": "Feature",
      "properties": { "name": "英属西非", "color": "#b04838" },
      "geometry": {
        "type": "Polygon",
        "coordinates": [[[-17,15],[-5,5],[10,4],[30,12],[25,30],[10,32],[-10,28],[-17,15]]]
      }
    },
    {
      "type": "Feature",
      "properties": { "name": "英属东非与南非", "color": "#b04838" },
      "geometry": {
        "type": "Polygon",
        "coordinates": [[[15,-22],[33,-26],[40,-16],[52,-2],[40,10],[33,5],[20,-5],[15,-22]]]
      }
    }
  ]
}
