{"type":"FeatureCollection","features":[{"type":"Feature","properties":{"name":"byzantine","source":"rasterized: Natural Earth coast (world-atlas 50m) ∩ hand-drawn historical frontier, marching squares + Douglas-Peucker ε=0.3°"},"geometry":{"type":"MultiPolygon","coordinates":[[[[30.25,22.375],[30.125,22.5],[30.125,24],[30.375,24.25],[30.375,26],[30.625,26.25],[30.625,28],[30.875,28.25],[30.875,30],[32,31.125],[34,31.125],[34.25,31.375],[34.5,31.125],[35.125,31.25],[35.125,32.25],[35.375,32.5],[35.375,33.5],[35.625,33.75],[35.625,34.25],[35.875,34.5],[35.875,36.25],[36.125,36.5],[36.125,36.75],[35.75,36.875],[35.5,36.625],[35,36.625],[34.75,36.875],[34,36.375],[32.25,36.375],[32,36.625],[30.75,36.875],[30.5,36.375],[30,36.375],[29.25,36.875],[28.75,36.875],[28,37.375],[27.5,37.375],[27.25,37.625],[26.625,37.75],[27.125,38],[26.375,38.25],[26.5,38.625],[26.75,38.375],[26.875,38.5],[26.875,39],[26.625,39.25],[26.875,39.5],[26.5,39.625],[26.25,39.125],[25.875,39.25],[26.125,39.5],[26.125,40],[26.625,40.25],[26.5,40.625],[26.25,40.625],[26,40.875],[25,40.875],[24.75,40.625],[24.5,40.875],[24.25,40.875],[23.875,40.5],[23.75,40.125],[23.5,40.375],[23.25,40.125],[22.75,40.625],[22.625,40.5],[22.625,40],[23.125,39.5],[22.875,39.25],[23,39.125],[23.25,39.375],[23.375,39.25],[23.375,39],[22.875,38.75],[23.25,38.625],[23.5,38.875],[23.625,38.5],[23,38.125],[22.75,38.375],[22.125,38.25],[22.875,38],[22.875,37.75],[22.625,37.5],[22.875,37.25],[22.5,36.625],[22.125,37],[22.125,37.75],[21.875,38],[21.875,38.25],[21.5,38.375],[21.125,38.75],[21.125,39],[20.75,39.125],[19.875,40],[19.875,40.5],[19.625,40.75],[19.625,41.25],[19.375,41.5],[19.625,41.75],[19.625,42.25],[19.875,42.5],[20,43.125],[20.25,43.125],[22,44.125],[23,44.125],[23.25,44.375],[23.75,44.375],[24,44.625],[25,44.625],[25.25,44.875],[25.75,44.875],[26,45.125],[27,45.125],[27.25,45.375],[27.75,45.375],[27.875,45.25],[27.875,42.75],[27.625,42.5],[27.875,42.25],[27.875,41.5],[28,41.375],[28.75,41.375],[28.875,41],[28.75,40.875],[28.5,41.125],[27.75,41.125],[27.25,40.625],[27,40.625],[26.875,40.5],[27,40.375],[28.75,40.375],[29,40.625],[29.75,40.625],[29.875,40.75],[29.25,40.875],[29.125,41],[29.25,41.125],[31.25,41.125],[31.5,41.375],[37,41.375],[37.25,41.125],[37.75,41.125],[38,40.875],[38.75,40.875],[39,41.125],[39.75,41.125],[40,40.875],[40.25,40.875],[40.5,41.125],[41,41.125],[41.25,41.375],[44.5,41.375],[44.75,41.125],[45.25,41.125],[46,40.625],[47.25,40.375],[48,39.875],[49.25,39.875],[49.375,39.75],[49.375,39.25],[48.875,39],[48.875,38.25],[48.625,38],[48.625,37.75],[47.375,36.5],[47.375,36.25],[47,36.125],[46.875,35.75],[46.5,35.625],[46.375,35.25],[46,35.125],[45.875,34.75],[45.5,34.625],[44,33.125],[43.75,33.125],[43.5,33.375],[43,33.375],[42.5,33.875],[42,33.875],[41.875,34.25],[40,35.875],[36.5,35.875],[36.375,35.75],[36.375,32.25],[36.125,32],[36.125,31.25],[34.625,29.75],[34.625,29.5],[34.25,29.375],[33.5,28.625],[33.25,28.625],[33.125,29],[32.625,29.5],[32.625,29.75],[32.5,29.875],[32.375,29.75],[32.375,29.5],[33.125,28.25],[32.875,28],[32.875,27.5],[32.625,27.25],[32.625,26.75],[32.375,26.5],[32.375,25.75],[32.125,25.5],[31.875,24.75],[30.375,22.75],[30.375,22.5],[30.25,22.375]]],[[[1.5,30.125],[1.25,30.375],[-2,30.375],[-2.25,30.625],[-4.5,30.625],[-4.75,30.875],[-7,30.875],[-7.75,31.375],[-8.25,31.375],[-8.5,31.625],[-9.25,31.875],[-9.375,32.25],[-9.125,32.5],[-9.125,32.75],[-8.5,33.375],[-8,33.375],[-7.75,33.625],[-7,33.875],[-6.625,34.25],[-6.375,35],[-6,35.375],[-4.75,35.375],[-4.5,35.125],[-4,35.125],[-3.75,35.375],[-3.5,35.125],[-3.25,35.125],[-3,35.375],[-2.75,35.125],[-1.75,35.125],[-1.5,35.375],[0.25,35.375],[0.5,35.125],[2.75,35.125],[3,34.875],[3.25,35.125],[4.75,35.125],[5,35.375],[6.25,35.375],[6.5,35.625],[8.25,35.625],[8.5,35.875],[9.75,35.875],[9.875,35.75],[9.875,33],[9.5,32.625],[8.75,32.375],[8.25,31.875],[7.5,31.625],[7,31.125],[6.75,31.125],[6.25,30.625],[6,30.625],[5.25,30.125],[1.75,30.125],[1.5,30.125]]],[[[-6,36.125],[-6.125,36.25],[-6.125,37.75],[-6,37.875],[-2,37.875],[-1.625,37.5],[-2,36.875],[-2.5,36.875],[-2.75,36.625],[-3,36.625],[-3.25,36.875],[-3.5,36.625],[-3.75,36.875],[-4,36.625],[-4.75,36.625],[-5,36.375],[-5.75,36.125],[-6,36.125]]],[[[13,37.875],[12.875,38],[13,38.125],[13.625,38],[13.25,37.875],[13,37.875]]],[[[14,37.875],[13.875,38],[14,38.125],[15.25,38.125],[15.375,38],[15.25,37.875],[14.25,37.875],[14,37.875]]],[[[15.75,37.875],[15.375,38.25],[15.75,38.375],[16.125,38.75],[16.125,39.25],[15.5,40.125],[15,40.125],[14.75,40.625],[14.5,40.625],[13.25,41.375],[12.75,41.375],[12.25,41.875],[12,41.875],[11.5,42.375],[11.25,42.375],[10.625,43],[10.375,43.75],[10,44.125],[9.5,44.125],[9.25,44.375],[8.5,44.375],[8.25,44.125],[7.875,44.5],[8,44.625],[9,44.625],[9.25,44.875],[10,44.875],[10.25,45.125],[11.25,45.125],[11.5,45.375],[12,45.375],[12.375,45],[12.375,44.25],[13.375,43.5],[13.375,43.25],[13.875,42.5],[13.875,42],[14.25,41.875],[16.25,40.125],[16.5,40.125],[16.625,39.75],[17.125,39.25],[17.125,39],[16.75,38.875],[16.625,38.5],[16,37.875],[15.75,37.875]]],[[[26,38.125],[25.875,38.25],[26,38.625],[26.125,38.25],[26,38.125]]],[[[26.5,38.875],[26.375,39],[26.5,39.125],[26.625,39],[26.5,38.875]]],[[[18.25,39.875],[17.875,40.25],[18.25,40.375],[18.375,40],[18.25,39.875]]],[[[23.5,39.875],[23.375,40],[23.5,40.125],[23.625,40],[23.5,39.875]]],[[[24.25,40.125],[24.125,40.25],[24.25,40.375],[24.375,40.25],[24.25,40.125]]],[[[10.25,42.625],[10.125,42.75],[10.25,42.875],[10.375,42.75],[10.25,42.625]]]]}}]}