{
  "type": "FeatureCollection",
  "features": [
    {
      "type": "Feature",
      "properties": {
        "id": "mongol-empire",
        "name": "蒙古帝国",
        "color": "#5a4a3a"
      },
      "geometry": {
        "type": "Polygon",
        "coordinates": [[
          [40, 60], [50, 65], [60, 68], [75, 70], [90, 72],
          [105, 73], [120, 70], [130, 60], [135, 50], [130, 45],
          [125, 42], [120, 40], [115, 38], [110, 35], [100, 32],
          [90, 30], [80, 32], [70, 35], [60, 40], [50, 45],
          [45, 50], [40, 55], [40, 60]
        ]]
      }
    }
  ]
}