{"type":"FeatureCollection","features":[{"type":"Feature","properties":{"name":"ottoman","source":"rasterized: Natural Earth coast (world-atlas 50m) ∩ hand-drawn historical frontier, marching squares + Douglas-Peucker ε=0.3°"},"geometry":{"type":"MultiPolygon","coordinates":[[[[43,16.125],[42.625,17],[41.625,18],[41.625,18.25],[41.125,18.75],[41.125,19.25],[40.875,19.5],[40.875,19.75],[40.5,19.875],[39.375,20.75],[39.375,21],[39.125,21.25],[39.125,22.75],[38.625,23.25],[38.625,23.5],[37.125,24.75],[37.375,25],[37.125,25.25],[37.125,25.5],[36.375,26.25],[36.375,26.5],[35.875,27],[35.875,27.25],[35,28.125],[34.625,28.25],[34.875,28.5],[34.875,29.25],[34.75,29.375],[34.625,29.25],[34.625,28.5],[34.375,28.25],[34.375,28],[34,27.875],[33.875,28],[33.875,29.25],[33.5,29.375],[32.875,30],[32.875,30.25],[32.375,30.75],[32.5,31.125],[32.75,31.125],[34.5,30.125],[35,30.125],[35.75,30.875],[35.875,30.75],[35.875,29],[36,28.875],[37,28.875],[37.25,28.625],[37.75,28.625],[38,28.375],[38.75,28.375],[39,28.125],[39.75,28.125],[40.375,27.5],[40.375,27.25],[40.875,26.75],[40.875,26.5],[41.375,26],[41.375,25.75],[41.875,25.25],[41.875,25],[42.25,24.875],[42.375,24.5],[45.625,21.25],[45.625,21],[46.375,20.25],[46.375,20],[47.875,18.25],[47.75,17.875],[47.5,17.875],[47.25,17.625],[47,17.625],[44.25,16.125],[43.25,16.125],[43,16.125]]],[[[37,19.125],[36.25,19.875],[35.875,20],[35.875,20.5],[35.625,20.75],[35.625,21],[35.375,21.25],[35.375,21.75],[34.875,22.5],[34.625,23.75],[33.875,25],[33.875,26.5],[34,26.625],[34.125,26.25],[34.625,25.75],[35.125,24.5],[35.625,24],[35.625,23],[36.875,22],[36.875,21.5],[37.125,21.25],[37.125,20],[37.375,19.75],[37.25,19.125],[37,19.125]]],[[[30,22.125],[29.875,22.25],[29.875,31],[31.75,31.375],[32.375,30.5],[32.375,29.5],[32.875,28.75],[32.875,27.5],[32.625,27.25],[32.625,26.75],[32.375,26.5],[32.375,25.75],[32.125,25.5],[31.875,24.75],[31.375,24.25],[31.375,24],[30.875,23.5],[30.875,23.25],[30.125,22.25],[30,22.125]]],[[[-4.5,30.625],[-4.75,30.875],[-7,30.875],[-7.75,31.375],[-8.25,31.375],[-8.5,31.625],[-9.25,31.875],[-9.375,32.25],[-9.125,32.5],[-9.125,32.75],[-8.5,33.375],[-8,33.375],[-7.75,33.625],[-7,33.875],[-6.625,34.25],[-6.375,35],[-6,35.375],[-4.75,35.375],[-4.5,35.125],[-4,35.125],[-3.75,35.375],[-3.5,35.125],[-3.25,35.125],[-3,35.375],[-2.75,35.125],[-1.75,35.125],[-1.5,35.375],[0.25,35.375],[0.5,35.125],[2.75,35.125],[3,34.875],[3.25,35.125],[4.75,35.125],[5,35.375],[6.25,35.375],[6.5,35.625],[7.75,35.625],[7.875,35.5],[7.25,35.375],[7,35.125],[6,35.125],[3.75,33.375],[2.5,32.875],[2,32.375],[1.5,32.375],[0.5,31.625],[0,31.625],[-0.5,31.125],[-0.75,31.125],[-1.5,30.625],[-4.25,30.625],[-4.5,30.625]]],[[[32.25,31.125],[32.125,31.25],[32.25,31.375],[32.375,31.25],[32.25,31.125]]],[[[36,31.125],[35.625,31.5],[35.625,31.75],[35.125,32.5],[35.125,33.25],[35.875,34.5],[35.875,36.25],[36.125,36.5],[36,36.875],[35.75,36.875],[35.5,36.625],[35,36.625],[34.75,36.875],[34,36.375],[32.25,36.375],[32,36.625],[30.75,36.875],[30.5,36.375],[30,36.375],[29.25,36.875],[28.75,36.875],[28,37.375],[27.5,37.375],[27.25,37.625],[26.625,37.75],[27.125,38],[26.375,38.25],[26.5,38.625],[26.75,38.375],[26.875,38.5],[26.875,39],[26.625,39.25],[26.875,39.5],[26.5,39.625],[26.25,39.125],[25.875,39.25],[26.125,39.5],[26.125,40],[26.625,40.25],[26.5,40.625],[26.25,40.625],[26,40.875],[25,40.875],[24.75,40.625],[24.5,40.875],[24.25,40.875],[23.875,40.5],[23.75,40.125],[23.5,40.375],[23.25,40.125],[22.75,40.625],[22.625,40.5],[22.625,40],[23.125,39.5],[22.875,39.25],[23,39.125],[23.25,39.375],[23.375,39.25],[23.375,39],[22.875,38.75],[23.25,38.625],[23.5,38.875],[23.625,38.5],[23,38.125],[22.75,38.375],[22.125,38.25],[22.875,38],[22.875,37.75],[22.625,37.5],[22.875,37.25],[22.5,36.625],[22.125,37],[22.125,37.75],[21.875,38],[21.875,38.25],[21.5,38.375],[21.125,38.75],[21.125,39],[20.75,39.125],[19.875,40],[19.875,40.5],[19.625,40.75],[19.625,41.25],[19.375,41.5],[19.625,41.75],[19.875,43],[21.875,44],[21.75,44.125],[21,44.125],[20.75,44.375],[20,44.375],[19.75,44.625],[19,44.625],[18.75,44.875],[18,44.875],[17.75,45.125],[17,45.375],[16.5,45.875],[16,45.875],[15.875,46],[15.875,47.25],[16.5,47.375],[17,46.875],[17.5,46.875],[18,46.375],[18.5,46.375],[19,45.875],[21.75,45.875],[22,46.125],[22.75,46.125],[23,46.375],[23.75,46.375],[24,46.625],[24.75,46.625],[25,46.875],[25.75,46.875],[26,47.125],[26.75,47.125],[27,47.375],[28,47.375],[28.625,46.75],[28.625,46.5],[28.875,46.25],[28.875,45.25],[28.375,44.5],[28.125,43.25],[27.625,42.5],[27.875,42.25],[27.875,42],[28.5,41.375],[28.875,41.25],[28.875,41],[28.75,40.875],[28.5,41.125],[27.75,41.125],[27.25,40.625],[27,40.625],[26.875,40.5],[27,40.375],[28.75,40.375],[29,40.625],[29.75,40.625],[29.875,40.75],[29.25,40.875],[29.125,41],[29.25,41.125],[31.25,41.125],[31.5,41.375],[37,41.375],[37.25,41.125],[37.75,41.125],[38,40.875],[38.75,40.875],[39,41.125],[39.75,41.125],[40,40.875],[40.25,40.875],[40.5,41.125],[41,41.125],[41.75,41.875],[45,41.875],[45.25,41.625],[45.75,41.625],[46,41.375],[47,41.375],[47.25,41.125],[47.75,41.125],[48.5,40.625],[49,40.625],[49.375,40.25],[49.375,39.25],[48.875,39],[48.875,38],[49.5,37.375],[50.25,37.375],[50.75,36.875],[51.875,36.5],[51.25,35.875],[51,35.875],[49.5,34.625],[49,34.625],[48.5,34.125],[48,34.125],[45.75,32.875],[44,32.875],[43.5,33.375],[43,33.375],[42.5,33.875],[42,33.875],[41.875,34.25],[40,35.875],[36.5,35.875],[36.375,35.75],[36.375,32.25],[36.125,32],[36.125,31.25],[36,31.125]]],[[[8.5,35.625],[8.375,35.75],[8.5,35.875],[9.125,35.75],[8.75,35.625],[8.5,35.625]]],[[[26,38.125],[25.875,38.25],[26,38.625],[26.125,38.25],[26,38.125]]],[[[26.5,38.875],[26.375,39],[26.5,39.125],[26.625,39],[26.5,38.875]]],[[[23.5,39.875],[23.375,40],[23.5,40.125],[23.625,40],[23.5,39.875]]],[[[24.25,40.125],[24.125,40.25],[24.25,40.375],[24.375,40.25],[24.25,40.125]]]]}}]}