{"type":"FeatureCollection","features":[{"type":"Feature","properties":{"name":"persia-safavid","source":"rasterized: Natural Earth coast (world-atlas 50m) ∩ hand-drawn historical frontier, marching squares + Douglas-Peucker ε=0.3°"},"geometry":{"type":"MultiPolygon","coordinates":[[[[64,27.875],[63.75,28.125],[63,28.125],[62.75,28.375],[62,28.375],[61.75,28.625],[61.25,28.625],[61,28.875],[60,28.875],[59.75,29.125],[59,29.125],[58.75,29.375],[58,29.375],[57.75,29.625],[57,29.625],[56.75,29.875],[56,29.875],[55.75,30.125],[55,30.125],[54.75,30.375],[54,30.375],[53.75,30.625],[53,30.625],[52.75,30.875],[52,30.875],[51.75,31.125],[51,31.125],[50.75,31.375],[50.25,31.375],[50,31.625],[49,31.625],[48.75,31.875],[48,31.875],[47.25,32.375],[46.5,32.375],[45.75,32.875],[45,32.875],[44.375,34],[44.375,34.25],[44.125,34.5],[44.125,34.75],[43.875,35],[46,37.125],[47.75,37.875],[47.875,38.25],[47.5,38.375],[47.25,38.875],[47,38.875],[45.25,40.625],[45,40.625],[44.625,41],[45.25,41.125],[46,40.625],[47.25,40.375],[48,39.875],[49.25,39.875],[49.375,39.25],[48.875,39],[48.875,38],[49.5,37.375],[50.25,37.375],[51.25,36.625],[52.75,36.625],[53,36.875],[54,36.875],[54.125,37],[53.875,37.25],[53.875,39],[53.5,39.375],[53.125,39.5],[53.5,39.875],[54.25,39.875],[55.5,39.125],[56,39.125],[57,38.375],[57.5,38.375],[58,37.875],[62.25,37.875],[64,36.875],[64.5,36.875],[65,36.375],[65.25,36.375],[65.5,36.125],[65.75,36.125],[68.5,34.625],[69,34.625],[70,33.875],[71,33.875],[71.25,33.625],[71.75,33.625],[72,33.375],[73,33.375],[73.25,33.125],[74.5,32.875],[75,32.375],[75.5,32.375],[75.875,32],[75.5,31.625],[75,31.625],[74.5,31.125],[74,31.125],[73.5,30.625],[73,30.625],[72.75,30.375],[71.5,29.875],[71,29.375],[70.5,29.375],[70,28.875],[69.5,28.875],[68.5,28.125],[68,28.125],[67.75,27.875],[64.25,27.875],[64,27.875]]],[[[44.5,41.125],[44.375,41.25],[44.5,41.375],[44.625,41.25],[44.5,41.125]]]]}}]}