{
  "type": "FeatureCollection",
  "features": [
    {
      "type": "Feature",
      "properties": {
        "id": "rome-empire",
        "name": "罗马帝国",
        "color": "#a85950",
        "subId": "rome-empire-0"
      },
      "geometry": {
        "type": "Polygon",
        "coordinates": [
          [
            [
              -9,
              30
            ],
            [
              -9,
              36
            ],
            [
              -5,
              36
            ],
            [
              -1,
              36
            ],
            [
              3,
              38
            ],
            [
              8,
              41
            ],
            [
              12,
              42
            ],
            [
              15,
              41
            ],
            [
              18,
              40
            ],
            [
              20,
              39
            ],
            [
              22,
              39
            ],
            [
              24,
              38
            ],
            [
              27,
              38
            ],
            [
              28,
              37
            ],
            [
              27,
              35
            ],
            [
              24,
              35
            ],
            [
              20,
              32
            ],
            [
              15,
              31
            ],
            [
              12,
              30
            ],
            [
              8,
              32
            ],
            [
              3,
              32
            ],
            [
              -1,
              34
            ],
            [
              -5,
              32
            ],
            [
              -9,
              30
            ]
          ]
        ]
      }
    },
    {
      "type": "Feature",
      "properties": {
        "id": "rome-empire",
        "name": "罗马帝国",
        "color": "#a85950",
        "subId": "rome-empire-1"
      },
      "geometry": {
        "type": "Polygon",
        "coordinates": [
          [
            [
              -2,
              43
            ],
            [
              3,
              44
            ],
            [
              8,
              45
            ],
            [
              14,
              45
            ],
            [
              18,
              44
            ],
            [
              20,
              43
            ],
            [
              18,
              41
            ],
            [
              14,
              42
            ],
            [
              8,
              42
            ],
            [
              3,
              41
            ],
            [
              -2,
              43
            ]
          ]
        ]
      }
    },
    {
      "type": "Feature",
      "properties": {
        "id": "rome-empire",
        "name": "罗马帝国",
        "color": "#a85950",
        "subId": "rome-empire-2"
      },
      "geometry": {
        "type": "Polygon",
        "coordinates": [
          [
            [
              10,
              33
            ],
            [
              12,
              33
            ],
            [
              15,
              33
            ],
            [
              18,
              34
            ],
            [
              22,
              33
            ],
            [
              25,
              32
            ],
            [
              28,
              33
            ],
            [
              32,
              32
            ],
            [
              35,
              32
            ],
            [
              35,
              30
            ],
            [
              30,
              29
            ],
            [
              25,
              30
            ],
            [
              20,
              31
            ],
            [
              15,
              30
            ],
            [
              10,
              33
            ]
          ]
        ]
      }
    }
  ]
}