{
  "type": "FeatureCollection",
  "features": [
    {
      "type": "Feature",
      "properties": {
        "id": "asia",
        "name": "亚洲",
        "type": "continent"
      },
      "geometry": {
        "type": "Polygon",
        "coordinates": [
          [
            [
              26,
              70
            ],
            [
              40,
              75
            ],
            [
              60,
              78
            ],
            [
              100,
              78
            ],
            [
              140,
              75
            ],
            [
              170,
              70
            ],
            [
              170,
              60
            ],
            [
              160,
              55
            ],
            [
              150,
              50
            ],
            [
              145,
              45
            ],
            [
              140,
              38
            ],
            [
              135,
              35
            ],
            [
              130,
              32
            ],
            [
              125,
              30
            ],
            [
              122,
              22
            ],
            [
              108,
              21
            ],
            [
              100,
              14
            ],
            [
              105,
              8
            ],
            [
              110,
              5
            ],
            [
              120,
              0
            ],
            [
              115,
              -10
            ],
            [
              105,
              -10
            ],
            [
              95,
              5
            ],
            [
              85,
              8
            ],
            [
              78,
              8
            ],
            [
              70,
              22
            ],
            [
              60,
              25
            ],
            [
              50,
              28
            ],
            [
              42,
              37
            ],
            [
              35,
              42
            ],
            [
              30,
              50
            ],
            [
              26,
              58
            ],
            [
              26,
              70
            ]
          ]
        ]
      }
    },
    {
      "type": "Feature",
      "properties": {
        "id": "europe",
        "name": "欧洲",
        "type": "continent"
      },
      "geometry": {
        "type": "Polygon",
        "coordinates": [
          [
            [
              -10,
              58
            ],
            [
              0,
              65
            ],
            [
              10,
              70
            ],
            [
              30,
              71
            ],
            [
              50,
              70
            ],
            [
              60,
              65
            ],
            [
              55,
              55
            ],
            [
              50,
              45
            ],
            [
              45,
              40
            ],
            [
              40,
              38
            ],
            [
              35,
              42
            ],
            [
              30,
              45
            ],
            [
              25,
              45
            ],
            [
              20,
              42
            ],
            [
              15,
              40
            ],
            [
              10,
              38
            ],
            [
              5,
              38
            ],
            [
              0,
              42
            ],
            [
              -5,
              48
            ],
            [
              -10,
              50
            ],
            [
              -10,
              58
            ]
          ]
        ]
      }
    },
    {
      "type": "Feature",
      "properties": {
        "id": "africa",
        "name": "非洲",
        "type": "continent"
      },
      "geometry": {
        "type": "Polygon",
        "coordinates": [
          [
            [
              -17,
              35
            ],
            [
              -10,
              35
            ],
            [
              0,
              36
            ],
            [
              10,
              36
            ],
            [
              20,
              32
            ],
            [
              30,
              32
            ],
            [
              35,
              28
            ],
            [
              40,
              18
            ],
            [
              42,
              12
            ],
            [
              50,
              12
            ],
            [
              52,
              5
            ],
            [
              42,
              0
            ],
            [
              40,
              -10
            ],
            [
              38,
              -20
            ],
            [
              32,
              -28
            ],
            [
              25,
              -32
            ],
            [
              18,
              -34
            ],
            [
              12,
              -16
            ],
            [
              10,
              -5
            ],
            [
              8,
              5
            ],
            [
              0,
              8
            ],
            [
              -10,
              12
            ],
            [
              -17,
              18
            ],
            [
              -17,
              25
            ],
            [
              -17,
              35
            ]
          ]
        ]
      }
    },
    {
      "type": "Feature",
      "properties": {
        "id": "north-america",
        "name": "北美洲",
        "type": "continent"
      },
      "geometry": {
        "type": "Polygon",
        "coordinates": [
          [
            [
              -170,
              70
            ],
            [
              -150,
              72
            ],
            [
              -130,
              72
            ],
            [
              -100,
              75
            ],
            [
              -80,
              75
            ],
            [
              -60,
              65
            ],
            [
              -55,
              50
            ],
            [
              -65,
              45
            ],
            [
              -75,
              38
            ],
            [
              -80,
              30
            ],
            [
              -85,
              25
            ],
            [
              -95,
              18
            ],
            [
              -105,
              18
            ],
            [
              -110,
              24
            ],
            [
              -115,
              30
            ],
            [
              -125,
              35
            ],
            [
              -130,
              45
            ],
            [
              -140,
              58
            ],
            [
              -160,
              60
            ],
            [
              -170,
              65
            ],
            [
              -170,
              70
            ]
          ]
        ]
      }
    },
    {
      "type": "Feature",
      "properties": {
        "id": "south-america",
        "name": "南美洲",
        "type": "continent"
      },
      "geometry": {
        "type": "Polygon",
        "coordinates": [
          [
            [
              -80,
              12
            ],
            [
              -72,
              12
            ],
            [
              -62,
              10
            ],
            [
              -52,
              5
            ],
            [
              -50,
              0
            ],
            [
              -48,
              -5
            ],
            [
              -44,
              -10
            ],
            [
              -40,
              -18
            ],
            [
              -44,
              -25
            ],
            [
              -50,
              -32
            ],
            [
              -58,
              -38
            ],
            [
              -65,
              -42
            ],
            [
              -70,
              -52
            ],
            [
              -75,
              -50
            ],
            [
              -72,
              -42
            ],
            [
              -72,
              -32
            ],
            [
              -72,
              -22
            ],
            [
              -78,
              -10
            ],
            [
              -80,
              -2
            ],
            [
              -80,
              12
            ]
          ]
        ]
      }
    },
    {
      "type": "Feature",
      "properties": {
        "id": "oceania",
        "name": "大洋洲",
        "type": "continent"
      },
      "geometry": {
        "type": "Polygon",
        "coordinates": [
          [
            [
              113,
              -22
            ],
            [
              120,
              -18
            ],
            [
              130,
              -12
            ],
            [
              140,
              -10
            ],
            [
              148,
              -18
            ],
            [
              153,
              -25
            ],
            [
              150,
              -34
            ],
            [
              142,
              -38
            ],
            [
              135,
              -34
            ],
            [
              125,
              -32
            ],
            [
              115,
              -34
            ],
            [
              113,
              -22
            ]
          ]
        ]
      }
    },
    {
      "type": "Feature",
      "properties": {
        "id": "british-isles",
        "name": "不列颠群岛",
        "type": "island"
      },
      "geometry": {
        "type": "Polygon",
        "coordinates": [
          [
            [
              -10,
              50
            ],
            [
              -5,
              58
            ],
            [
              -2,
              60
            ],
            [
              2,
              58
            ],
            [
              2,
              53
            ],
            [
              0,
              51
            ],
            [
              -5,
              50
            ],
            [
              -10,
              50
            ]
          ]
        ]
      }
    },
    {
      "type": "Feature",
      "properties": {
        "id": "japan",
        "name": "日本",
        "type": "island"
      },
      "geometry": {
        "type": "Polygon",
        "coordinates": [
          [
            [
              130,
              31
            ],
            [
              132,
              34
            ],
            [
              135,
              38
            ],
            [
              138,
              42
            ],
            [
              142,
              46
            ],
            [
              145,
              44
            ],
            [
              142,
              42
            ],
            [
              140,
              38
            ],
            [
              136,
              36
            ],
            [
              133,
              34
            ],
            [
              130,
              31
            ]
          ]
        ]
      }
    }
  ]
}